start=new Date('2023-01-25T00:00:00.000Z').valueOf();
sats=[{"ARG_OF_PERICENTER":"91.8046","MEAN_ELEMENT_THEORY":"SGP4","PERIOD":"95.592","SITE":"AFETR","OBJECT_TYPE":"PAYLOAD","MEAN_MOTION_DDOT":"0.0000000000000","CENTER_NAME":"EARTH","FILE":"3760018","EPOCH":"2023-01-24T15:01:22.866240","RA_OF_ASC_NODE":"159.5633","SEMIMAJOR_AXIS":"6925.336","MEAN_ANOMALY":"268.3081","NORAD_CAT_ID":"48283","GP_ID":"223638221","EPHEMERIS_TYPE":"0","ELEMENT_SET_NO":"999","INCLINATION":"53.0535","TLE_LINE1":"1 48283U 21036H   23024.62595910  .00001594  00000-0  12586-3 0  9999","BSTAR":"0.00012586000000","OBJECT_NAME":"STARLINK-2516","ECCENTRICITY":"0.00012060","MEAN_MOTION":"15.06404049","REV_AT_EPOCH":"9706","LAUNCH_DATE":"2021-04-29","COUNTRY_CODE":"US","TIME_SYSTEM":"UTC","RCS_SIZE":"LARGE","DECAY_DATE":null,"OBJECT_ID":"2021-036H","MEAN_MOTION_DOT":"0.00001594","TLE_LINE2":"2 48283  53.0535 159.5633 0001206  91.8046 268.3081 15.06404049 97060","APOAPSIS":"548.036","CLASSIFICATION_TYPE":"U","REF_FRAME":"TEME","PERIAPSIS":"546.366"},{"ARG_OF_PERICENTER":"89.0095","SITE":"AFETR","MEAN_ELEMENT_THEORY":"SGP4","PERIOD":"95.592","OBJECT_TYPE":"PAYLOAD","CENTER_NAME":"EARTH","MEAN_MOTION_DDOT":"0.0000000000000","FILE":"3760060","EPOCH":"2023-01-24T16:31:36.615072","SEMIMAJOR_AXIS":"6925.337","RA_OF_ASC_NODE":"159.2910","MEAN_ANOMALY":"271.0998","NORAD_CAT_ID":"48284","ELEMENT_SET_NO":"999","EPHEMERIS_TYPE":"0","GP_ID":"223639348","INCLINATION":"53.0540","TLE_LINE1":"1 48284U 21036J   23024.68861823  .00002098  00000-0  15969-3 0  9993","BSTAR":"0.00015969000000","MEAN_MOTION":"15.06403618","ECCENTRICITY":"0.00009070","OBJECT_NAME":"STARLINK-2564","LAUNCH_DATE":"2021-04-29","REV_AT_EPOCH":"9706","COUNTRY_CODE":"US","TIME_SYSTEM":"UTC","OBJECT_ID":"2021-036J","DECAY_DATE":null,"RCS_SIZE":"LARGE","MEAN_MOTION_DOT":"0.00002098","TLE_LINE2":"2 48284  53.0540 159.2910 0000907  89.0095 271.0998 15.06403618 97061","CLASSIFICATION_TYPE":"U","APOAPSIS":"547.831","REF_FRAME":"TEME","PERIAPSIS":"546.574"},{"TLE_LINE1":"1 48285U 21036K   23024.08686759  .00001233  00000-0  10166-3 0  9995","BSTAR":"0.00010166000000","MEAN_MOTION":"15.06397119","ECCENTRICITY":"0.00009450","OBJECT_NAME":"STARLINK-2548","LAUNCH_DATE":"2021-04-29","REV_AT_EPOCH":"9696","COUNTRY_CODE":"US","TIME_SYSTEM":"UTC","OBJECT_ID":"2021-036K","DECAY_DATE":null,"RCS_SIZE":"LARGE","MEAN_MOTION_DOT":"0.00001233","TLE_LINE2":"2 48285  53.0528 161.9854 0000945  92.6829 267.4269 15.06397119 96968","CLASSIFICATION_TYPE":"U","APOAPSIS":"547.877","REF_FRAME":"TEME","PERIAPSIS":"546.568","ARG_OF_PERICENTER":"92.6829","SITE":"AFETR","MEAN_ELEMENT_THEORY":"SGP4","PERIOD":"95.592","OBJECT_TYPE":"PAYLOAD","CENTER_NAME":"EARTH","MEAN_MOTION_DDOT":"0.0000000000000","FILE":"3759392","EPOCH":"2023-01-24T02:05:05.359776","SEMIMAJOR_AXIS":"6925.357","RA_OF_ASC_NODE":"161.9854","NORAD_CAT_ID":"48285","MEAN_ANOMALY":"267.4269","ELEMENT_SET_NO":"999","GP_ID":"223625151","EPHEMERIS_TYPE":"0","INCLINATION":"53.0528"},{"ELEMENT_SET_NO":"999","EPHEMERIS_TYPE":"0","GP_ID":"223632174","INCLINATION":"53.0532","RA_OF_ASC_NODE":"160.5077","SEMIMAJOR_AXIS":"6925.363","NORAD_CAT_ID":"48286","MEAN_ANOMALY":"269.2062","FILE":"3759709","EPOCH":"2023-01-24T09:58:50.728224","SITE":"AFETR","PERIOD":"95.592","MEAN_ELEMENT_THEORY":"SGP4","ARG_OF_PERICENTER":"90.9095","CENTER_NAME":"EARTH","MEAN_MOTION_DDOT":"0.0000000000000","OBJECT_TYPE":"PAYLOAD","REF_FRAME":"TEME","CLASSIFICATION_TYPE":"U","APOAPSIS":"548.244","PERIAPSIS":"546.211","OBJECT_ID":"2021-036L","DECAY_DATE":null,"RCS_SIZE":"LARGE","TIME_SYSTEM":"UTC","TLE_LINE2":"2 48286  53.0532 160.5077 0001468  90.9095 269.2062 15.06395347 97023","MEAN_MOTION_DOT":"0.00000041","LAUNCH_DATE":"2021-04-29","REV_AT_EPOCH":"9702","ECCENTRICITY":"0.00014680","MEAN_MOTION":"15.06395347","OBJECT_NAME":"STARLINK-2547","COUNTRY_CODE":"US","TLE_LINE1":"1 48286U 21036L   23024.41586491  .00000041  00000-0  21647-4 0  9998","BSTAR":"0.00002164700000"},{"PERIAPSIS":"546.348","REF_FRAME":"TEME","APOAPSIS":"548.061","CLASSIFICATION_TYPE":"U","TLE_LINE2":"2 48287  53.0512 160.5330 0001237 100.1956 259.9172 15.06403044 97020","MEAN_MOTION_DOT":"0.00006418","RCS_SIZE":"LARGE","DECAY_DATE":null,"OBJECT_ID":"2021-036M","TIME_SYSTEM":"UTC","COUNTRY_CODE":"US","REV_AT_EPOCH":"9702","LAUNCH_DATE":"2021-04-29","OBJECT_NAME":"STARLINK-2566","ECCENTRICITY":"0.00012370","MEAN_MOTION":"15.06403044","BSTAR":"0.00044933000000","TLE_LINE1":"1 48287U 21036M   23024.41219231  .00006418  00000-0  44933-3 0  9990","INCLINATION":"53.0512","EPHEMERIS_TYPE":"0","GP_ID":"223632522","ELEMENT_SET_NO":"999","NORAD_CAT_ID":"48287","MEAN_ANOMALY":"259.9172","RA_OF_ASC_NODE":"160.5330","SEMIMAJOR_AXIS":"6925.339","EPOCH":"2023-01-24T09:53:33.415584","FILE":"3759709","MEAN_MOTION_DDOT":"0.0000000000000","CENTER_NAME":"EARTH","OBJECT_TYPE":"PAYLOAD","MEAN_ELEMENT_THEORY":"SGP4","PERIOD":"95.592","SITE":"AFETR","ARG_OF_PERICENTER":"100.1956"},{"CLASSIFICATION_TYPE":"U","APOAPSIS":"548.124","REF_FRAME":"TEME","PERIAPSIS":"546.421","TIME_SYSTEM":"UTC","OBJECT_ID":"2021-036N","RCS_SIZE":"LARGE","DECAY_DATE":null,"MEAN_MOTION_DOT":"-0.00001819","TLE_LINE2":"2 48288  53.0551 159.3528 0001230  79.6115 280.5013 15.06380740 97064","MEAN_MOTION":"15.06380740","ECCENTRICITY":"0.00012300","OBJECT_NAME":"STARLINK-2562","LAUNCH_DATE":"2021-04-29","REV_AT_EPOCH":"9706","COUNTRY_CODE":"US","TLE_LINE1":"1 48288U 21036N   23024.67294915 -.00001819  00000-0 -10332-3 0  9999","BSTAR":"-0.00010332000000","ELEMENT_SET_NO":"999","GP_ID":"223638016","EPHEMERIS_TYPE":"0","INCLINATION":"53.0551","RA_OF_ASC_NODE":"159.3528","SEMIMAJOR_AXIS":"6925.408","MEAN_ANOMALY":"280.5013","NORAD_CAT_ID":"48288","FILE":"3760012","EPOCH":"2023-01-24T16:09:02.806560","ARG_OF_PERICENTER":"79.6115","SITE":"AFETR","MEAN_ELEMENT_THEORY":"SGP4","PERIOD":"95.593","OBJECT_TYPE":"PAYLOAD","CENTER_NAME":"EARTH","MEAN_MOTION_DDOT":"0.0000000000000"},{"REF_FRAME":"TEME","CLASSIFICATION_TYPE":"U","APOAPSIS":"548.065","PERIAPSIS":"546.310","OBJECT_ID":"2021-036P","RCS_SIZE":"LARGE","DECAY_DATE":null,"TIME_SYSTEM":"UTC","TLE_LINE2":"2 48289  53.0530 159.3747 0001267  97.6170 262.4962 15.06408378 97066","MEAN_MOTION_DOT":"0.00004517","LAUNCH_DATE":"2021-04-29","REV_AT_EPOCH":"9706","ECCENTRICITY":"0.00012670","MEAN_MOTION":"15.06408378","OBJECT_NAME":"STARLINK-2545","COUNTRY_CODE":"US","TLE_LINE1":"1 48289U 21036P   23024.67018829  .00004517  00000-0  32188-3 0  9997","BSTAR":"0.00032188000000","ELEMENT_SET_NO":"999","GP_ID":"223638012","EPHEMERIS_TYPE":"0","INCLINATION":"53.0530","SEMIMAJOR_AXIS":"6925.323","RA_OF_ASC_NODE":"159.3747","NORAD_CAT_ID":"48289","MEAN_ANOMALY":"262.4962","FILE":"3760012","EPOCH":"2023-01-24T16:05:04.268256","SITE":"AFETR","PERIOD":"95.592","MEAN_ELEMENT_THEORY":"SGP4","ARG_OF_PERICENTER":"97.6170","CENTER_NAME":"EARTH","MEAN_MOTION_DDOT":"0.0000000000000","OBJECT_TYPE":"PAYLOAD"},{"EPHEMERIS_TYPE":"0","GP_ID":"223638256","ELEMENT_SET_NO":"999","INCLINATION":"53.0570","RA_OF_ASC_NODE":"159.3770","SEMIMAJOR_AXIS":"6925.344","MEAN_ANOMALY":"257.2091","NORAD_CAT_ID":"48290","FILE":"3760012","EPOCH":"2023-01-24T15:59:45.816864","MEAN_ELEMENT_THEORY":"SGP4","PERIOD":"95.592","SITE":"AFETR","ARG_OF_PERICENTER":"102.9053","MEAN_MOTION_DDOT":"0.0000000000000","CENTER_NAME":"EARTH","OBJECT_TYPE":"PAYLOAD","REF_FRAME":"TEME","APOAPSIS":"548.169","CLASSIFICATION_TYPE":"U","PERIAPSIS":"546.249","DECAY_DATE":null,"RCS_SIZE":"LARGE","OBJECT_ID":"2021-036Q","TIME_SYSTEM":"UTC","TLE_LINE2":"2 48290  53.0570 159.3770 0001386 102.9053 257.2091 15.06401592 97066","MEAN_MOTION_DOT":"0.00001386","REV_AT_EPOCH":"9706","LAUNCH_DATE":"2021-04-29","OBJECT_NAME":"STARLINK-2540","ECCENTRICITY":"0.00013860","MEAN_MOTION":"15.06401592","COUNTRY_CODE":"US","TLE_LINE1":"1 48290U 21036Q   23024.66650251  .00001386  00000-0  11194-3 0  9994","BSTAR":"0.00011194000000"},{"FILE":"3760196","EPOCH":"2023-01-24T14:18:53.304192","ARG_OF_PERICENTER":"88.1290","MEAN_ELEMENT_THEORY":"SGP4","PERIOD":"95.589","SITE":"AFETR","OBJECT_TYPE":"PAYLOAD","MEAN_MOTION_DDOT":"0.0000000000000","CENTER_NAME":"EARTH","GP_ID":"223642471","EPHEMERIS_TYPE":"0","ELEMENT_SET_NO":"999","INCLINATION":"53.0548","SEMIMAJOR_AXIS":"6925.175","RA_OF_ASC_NODE":"159.6883","MEAN_ANOMALY":"271.9879","NORAD_CAT_ID":"48291","OBJECT_NAME":"STARLINK-2555","ECCENTRICITY":"0.00015660","MEAN_MOTION":"15.06456528","REV_AT_EPOCH":"9705","LAUNCH_DATE":"2021-04-29","COUNTRY_CODE":"US","TLE_LINE1":"1 48291U 21036R   23024.59645028 -.00011706  00000-0 -76703-3 0  9999","BSTAR":"-0.00076703000000","APOAPSIS":"548.125","CLASSIFICATION_TYPE":"U","REF_FRAME":"TEME","PERIAPSIS":"545.956","TIME_SYSTEM":"UTC","DECAY_DATE":null,"RCS_SIZE":"LARGE","OBJECT_ID":"2021-036R","MEAN_MOTION_DOT":"-0.00011706","TLE_LINE2":"2 48291  53.0548 159.6883 0001566  88.1290 271.9879 15.06456528 97053"},{"RA_OF_ASC_NODE":"159.5262","SEMIMAJOR_AXIS":"6925.343","NORAD_CAT_ID":"48292","MEAN_ANOMALY":"249.5718","EPHEMERIS_TYPE":"0","GP_ID":"223642352","ELEMENT_SET_NO":"999","INCLINATION":"53.0527","ARG_OF_PERICENTER":"110.5392","MEAN_ELEMENT_THEORY":"SGP4","PERIOD":"95.592","SITE":"AFETR","OBJECT_TYPE":"PAYLOAD","MEAN_MOTION_DDOT":"0.0000000000000","CENTER_NAME":"EARTH","FILE":"3760189","EPOCH":"2023-01-24T16:10:24.538368","TIME_SYSTEM":"UTC","DECAY_DATE":null,"RCS_SIZE":"LARGE","OBJECT_ID":"2021-036S","MEAN_MOTION_DOT":"0.00000095","TLE_LINE2":"2 48292  53.0527 159.5262 0001129 110.5392 249.5718 15.06401873 97066","APOAPSIS":"547.990","CLASSIFICATION_TYPE":"U","REF_FRAME":"TEME","PERIAPSIS":"546.426","TLE_LINE1":"1 48292U 21036S   23024.67389512  .00000095  00000-0  25273-4 0  9996","BSTAR":"0.00002527300000","OBJECT_NAME":"STARLINK-2542","MEAN_MOTION":"15.06401873","ECCENTRICITY":"0.00011290","REV_AT_EPOCH":"9706","LAUNCH_DATE":"2021-04-29","COUNTRY_CODE":"US"}];
